{
  "type": "FeatureCollection",
  "features": [
    {
      "type": "Feature",
      "properties": {
        "norad_id": 66484,
        "name": "STARLINK-35371",
        "group": "last-30-days",
        "lat": -22.823980135412313,
        "lon": 102.31892230841228,
        "alt_km": 380.9677167620466,
        "timestamp": "2025-12-02T19:35:49.343109+00:00",
        "meta_object_name": "STARLINK-35371",
        "meta_object_id": "2025-262AE",
        "meta_epoch": "2025-12-02T12:00:05.998752",
        "meta_mean_motion": 15.64295739,
        "meta_eccentricity": 0.00017,
        "meta_inclination": 42.9993,
        "meta_ra_of_asc_node": 131.0563,
        "meta_arg_of_pericenter": 269.9117,
        "meta_mean_anomaly": 71.9447,
        "meta_ephemeris_type": 0,
        "meta_classification_type": "U",
        "meta_norad_cat_id": 66484,
        "meta_element_set_no": 999,
        "meta_rev_at_epoch": 399,
        "meta_bstar": -0.024536,
        "meta_mean_motion_dot": -0.02104036,
        "meta_mean_motion_ddot": 0,
        "tle_line1": "1 66484U 25262AE  25336.50006943 -.02104036  00000+0 -24536-1 0  9999",
        "tle_line2": "2 66484  42.9993 131.0563 0001700 269.9117  71.9447 15.64295739  3992"
      },
      "geometry": {
        "type": "Point",
        "coordinates": [
          102.31892230841228,
          -22.823980135412313
        ]
      }
    },
    {
      "type": "Feature",
      "properties": {
        "norad_id": 66485,
        "name": "STARLINK-34774",
        "group": "last-30-days",
        "lat": 19.45696153674921,
        "lon": -153.94211880129347,
        "alt_km": 344.1917910215234,
        "timestamp": "2025-12-02T19:35:49.343120+00:00",
        "meta_object_name": "STARLINK-34774",
        "meta_object_id": "2025-263A",
        "meta_epoch": "2025-12-02T12:00:05.998752",
        "meta_mean_motion": 15.75397151,
        "meta_eccentricity": 0.0001925,
        "meta_inclination": 42.9989,
        "meta_ra_of_asc_node": 185.6979,
        "meta_arg_of_pericenter": 277.0522,
        "meta_mean_anomaly": 115.8503,
        "meta_ephemeris_type": 0,
        "meta_classification_type": "U",
        "meta_norad_cat_id": 66485,
        "meta_element_set_no": 999,
        "meta_rev_at_epoch": 399,
        "meta_bstar": -0.011903,
        "meta_mean_motion_dot": -0.01648489,
        "meta_mean_motion_ddot": 0,
        "tle_line1": "1 66485U 25263A   25336.50006943 -.01648489  00000+0 -11903-1 0  9999",
        "tle_line2": "2 66485  42.9989 185.6979 0001925 277.0522 115.8503 15.75397151  3997"
      },
      "geometry": {
        "type": "Point",
        "coordinates": [
          -153.94211880129347,
          19.45696153674921
        ]
      }
    },
    {
      "type": "Feature",
      "properties": {
        "norad_id": 66486,
        "name": "STARLINK-34844",
        "group": "last-30-days",
        "lat": 20.6591920433152,
        "lon": -152.35810442106913,
        "alt_km": 344.46197767031936,
        "timestamp": "2025-12-02T19:35:49.343132+00:00",
        "meta_object_name": "STARLINK-34844",
        "meta_object_id": "2025-263B",
        "meta_epoch": "2025-12-02T12:00:05.998752",
        "meta_mean_motion": 15.75416355,
        "meta_eccentricity": 0.0001819,
        "meta_inclination": 42.999,
        "meta_ra_of_asc_node": 185.6925,
        "meta_arg_of_pericenter": 258.153,
        "meta_mean_anomaly": 136.6629,
        "meta_ephemeris_type": 0,
        "meta_classification_type": "U",
        "meta_norad_cat_id": 66486,
        "meta_element_set_no": 999,
        "meta_rev_at_epoch": 394,
        "meta_bstar": -0.012152,
        "meta_mean_motion_dot": -0.01680247,
        "meta_mean_motion_ddot": 0,
        "tle_line1": "1 66486U 25263B   25336.50006943 -.01680247  00000+0 -12152-1 0  9995",
        "tle_line2": "2 66486  42.9990 185.6925 0001819 258.1530 136.6629 15.75416355  3945"
      },
      "geometry": {
        "type": "Point",
        "coordinates": [
          -152.35810442106913,
          20.6591920433152
        ]
      }
    },
    {
      "type": "Feature",
      "properties": {
        "norad_id": 66487,
        "name": "STARLINK-34733",
        "group": "last-30-days",
        "lat": 21.94972056676752,
        "lon": -150.60613272039834,
        "alt_km": 342.0233836921343,
        "timestamp": "2025-12-02T19:35:49.343143+00:00",
        "meta_object_name": "STARLINK-34733",
        "meta_object_id": "2025-263C",
        "meta_epoch": "2025-12-02T06:00:02.999808",
        "meta_mean_motion": 15.75133516,
        "meta_eccentricity": 0.00016485,
        "meta_inclination": 42.999,
        "meta_ra_of_asc_node": 187.205,
        "meta_arg_of_pericenter": 278.9818,
        "meta_mean_anomaly": 138.3175,
        "meta_ephemeris_type": 0,
        "meta_classification_type": "U",
        "meta_norad_cat_id": 66487,
        "meta_element_set_no": 999,
        "meta_rev_at_epoch": 395,
        "meta_bstar": -0.0017139564,
        "meta_mean_motion_dot": -0.00256972,
        "meta_mean_motion_ddot": 0,
        "tle_line1": "1 66487U 25263C   25336.25003472 -.00256972  00000+0 -17140-2 0  9998",
        "tle_line2": "2 66487  42.9990 187.2050 0001648 278.9818 138.3175 15.75133516  3953"
      },
      "geometry": {
        "type": "Point",
        "coordinates": [
          -150.60613272039834,
          21.94972056676752
        ]
      }
    },
    {
      "type": "Feature",
      "properties": {
        "norad_id": 66488,
        "name": "STARLINK-35515",
        "group": "last-30-days",
        "lat": 23.01876823642858,
        "lon": -149.1100529342091,
        "alt_km": 343.6260794116588,
        "timestamp": "2025-12-02T19:35:49.343153+00:00",
        "meta_object_name": "STARLINK-35515",
        "meta_object_id": "2025-263D",
        "meta_epoch": "2025-12-02T12:00:05.998752",
        "meta_mean_motion": 15.75397568,
        "meta_eccentricity": 0.0001632,
        "meta_inclination": 42.9988,
        "meta_ra_of_asc_node": 185.6831,
        "meta_arg_of_pericenter": 278.4317,
        "meta_mean_anomaly": 120.2188,
        "meta_ephemeris_type": 0,
        "meta_classification_type": "U",
        "meta_norad_cat_id": 66488,
        "meta_element_set_no": 999,
        "meta_rev_at_epoch": 399,
        "meta_bstar": -0.01186,
        "meta_mean_motion_dot": -0.01643077,
        "meta_mean_motion_ddot": 0,
        "tle_line1": "1 66488U 25263D   25336.50006943 -.01643077  00000+0 -11860-1 0  9992",
        "tle_line2": "2 66488  42.9988 185.6831 0001632 278.4317 120.2188 15.75397568  3999"
      },
      "geometry": {
        "type": "Point",
        "coordinates": [
          -149.1100529342091,
          23.01876823642858
        ]
      }
    },
    {
      "type": "Feature",
      "properties": {
        "norad_id": 66489,
        "name": "STARLINK-35696",
        "group": "last-30-days",
        "lat": 24.17140642407395,
        "lon": -147.44755963511903,
        "alt_km": 343.97871165282595,
        "timestamp": "2025-12-02T19:35:49.343169+00:00",
        "meta_object_name": "STARLINK-35696",
        "meta_object_id": "2025-263E",
        "meta_epoch": "2025-12-02T12:00:05.998752",
        "meta_mean_motion": 15.75414935,
        "meta_eccentricity": 0.0001684,
        "meta_inclination": 42.999,
        "meta_ra_of_asc_node": 185.678,
        "meta_arg_of_pericenter": 254.246,
        "meta_mean_anomaly": 146.3165,
        "meta_ephemeris_type": 0,
        "meta_classification_type": "U",
        "meta_norad_cat_id": 66489,
        "meta_element_set_no": 999,
        "meta_rev_at_epoch": 399,
        "meta_bstar": -0.012095,
        "meta_mean_motion_dot": -0.01673044,
        "meta_mean_motion_ddot": 0,
        "tle_line1": "1 66489U 25263E   25336.50006943 -.01673044  00000+0 -12095-1 0  9991",
        "tle_line2": "2 66489  42.9990 185.6780 0001684 254.2460 146.3165 15.75414935  3996"
      },
      "geometry": {
        "type": "Point",
        "coordinates": [
          -147.44755963511903,
          24.17140642407395
        ]
      }
    },
    {
      "type": "Feature",
      "properties": {
        "norad_id": 66490,
        "name": "STARLINK-35693",
        "group": "last-30-days",
        "lat": 25.309744642779922,
        "lon": -145.74802030749063,
        "alt_km": 343.33260696944853,
        "timestamp": "2025-12-02T19:35:49.343179+00:00",
        "meta_object_name": "STARLINK-35693",
        "meta_object_id": "2025-263F",
        "meta_epoch": "2025-12-02T12:00:05.998752",
        "meta_mean_motion": 15.75397799,
        "meta_eccentricity": 0.0001633,
        "meta_inclination": 42.9988,
        "meta_ra_of_asc_node": 185.673,
        "meta_arg_of_pericenter": 278.0407,
        "meta_mean_anomaly": 124.4407,
        "meta_ephemeris_type": 0,
        "meta_classification_type": "U",
        "meta_norad_cat_id": 66490,
        "meta_element_set_no": 999,
        "meta_rev_at_epoch": 399,
        "meta_bstar": -0.011832,
        "meta_mean_motion_dot": -0.01639605,
        "meta_mean_motion_ddot": 0,
        "tle_line1": "1 66490U 25263F   25336.50006943 -.01639605  00000+0 -11832-1 0  9996",
        "tle_line2": "2 66490  42.9988 185.6730 0001633 278.0407 124.4407 15.75397799  3993"
      },
      "geometry": {
        "type": "Point",
        "coordinates": [
          -145.74802030749063,
          25.309744642779922
        ]
      }
    }
  ]
}